CCSDS_OMM_VERS = 2.0
CREATION_DATE  = 
ORIGINATOR     = 

OBJECT_NAME    = STARLINK-35543
OBJECT_ID      = 2025-243AA
CENTER_NAME    = EARTH
REF_FRAME      = TEME
TIME_SYSTEM    = UTC
MEAN_ELEMENT_THEORY = SGP/SGP4

EPOCH          = 2025-11-14T18:41:57.323616
MEAN_MOTION    = 15.72946684
ECCENTRICITY   = .0000787
INCLINATION    = 53.1588
RA_OF_ASC_NODE = 60.9113
ARG_OF_PERICENTER = 51.0666
MEAN_ANOMALY   = 309.0424

EPHEMERIS_TYPE = 0
CLASSIFICATION_TYPE = U
NORAD_CAT_ID   = 66201
ELEMENT_SET_NO = 999
REV_AT_EPOCH   = 303
BSTAR          = -.56164E-2
MEAN_MOTION_DOT = -.717011E-2
MEAN_MOTION_DDOT = 0

CCSDS_OMM_VERS = 2.0
CREATION_DATE  = 
ORIGINATOR     = 

OBJECT_NAME    = STARLINK-35534
OBJECT_ID      = 2025-243AB
CENTER_NAME    = EARTH
REF_FRAME      = TEME
TIME_SYSTEM    = UTC
MEAN_ELEMENT_THEORY = SGP/SGP4

EPOCH          = 2025-11-14T18:42:26.766144
MEAN_MOTION    = 15.72890459
ECCENTRICITY   = .0000995
INCLINATION    = 53.1585
RA_OF_ASC_NODE = 60.9134
ARG_OF_PERICENTER = 48.0710
MEAN_ANOMALY   = 312.0394

EPHEMERIS_TYPE = 0
CLASSIFICATION_TYPE = U
NORAD_CAT_ID   = 66202
ELEMENT_SET_NO = 999
REV_AT_EPOCH   = 303
BSTAR          = -.63691E-2
MEAN_MOTION_DOT = -.80282E-2
MEAN_MOTION_DDOT = 0

CCSDS_OMM_VERS = 2.0
CREATION_DATE  = 
ORIGINATOR     = 

OBJECT_NAME    = STARLINK-35548
OBJECT_ID      = 2025-243AC
CENTER_NAME    = EARTH
REF_FRAME      = TEME
TIME_SYSTEM    = UTC
MEAN_ELEMENT_THEORY = SGP/SGP4

EPOCH          = 2025-11-14T18:42:53.138016
MEAN_MOTION    = 15.73270989
ECCENTRICITY   = .0001281
INCLINATION    = 53.1586
RA_OF_ASC_NODE = 60.9160
ARG_OF_PERICENTER = 45.8543
MEAN_ANOMALY   = 314.2582

EPHEMERIS_TYPE = 0
CLASSIFICATION_TYPE = U
NORAD_CAT_ID   = 66203
ELEMENT_SET_NO = 999
REV_AT_EPOCH   = 303
BSTAR          = -.2162E-2
MEAN_MOTION_DOT = -.294579E-2
MEAN_MOTION_DDOT = 0

CCSDS_OMM_VERS = 2.0
CREATION_DATE  = 
ORIGINATOR     = 

OBJECT_NAME    = STARLINK-35490
OBJECT_ID      = 2025-243AD
CENTER_NAME    = EARTH
REF_FRAME      = TEME
TIME_SYSTEM    = UTC
MEAN_ELEMENT_THEORY = SGP/SGP4

EPOCH          = 2025-11-14T18:43:54.099264
MEAN_MOTION    = 15.72952447
ECCENTRICITY   = .0000326
INCLINATION    = 53.1584
RA_OF_ASC_NODE = 60.9209
ARG_OF_PERICENTER = 87.2506
MEAN_ANOMALY   = 272.8550

EPHEMERIS_TYPE = 0
CLASSIFICATION_TYPE = U
NORAD_CAT_ID   = 66204
ELEMENT_SET_NO = 999
REV_AT_EPOCH   = 303
BSTAR          = -.57108E-2
MEAN_MOTION_DOT = -.728165E-2
MEAN_MOTION_DDOT = 0

CCSDS_OMM_VERS = 2.0
CREATION_DATE  = 
ORIGINATOR     = 

OBJECT_NAME    = STARLINK-35748
OBJECT_ID      = 2025-244A
CENTER_NAME    = EARTH
REF_FRAME      = TEME
TIME_SYSTEM    = UTC
MEAN_ELEMENT_THEORY = SGP/SGP4

EPOCH          = 2025-11-14T20:00:01.000224
MEAN_MOTION    = 15.56851112
ECCENTRICITY   = .0001123
INCLINATION    = 53.1597
RA_OF_ASC_NODE = 47.9883
ARG_OF_PERICENTER = 72.6129
MEAN_ANOMALY   = 157.5006

EPHEMERIS_TYPE = 0
CLASSIFICATION_TYPE = U
NORAD_CAT_ID   = 66206
ELEMENT_SET_NO = 999
REV_AT_EPOCH   = 377
BSTAR          = -.32162E-1
MEAN_MOTION_DOT = -.2093495E-1
MEAN_MOTION_DDOT = 0

CCSDS_OMM_VERS = 2.0
CREATION_DATE  = 
ORIGINATOR     = 

OBJECT_NAME    = STARLINK-35747
OBJECT_ID      = 2025-244B
CENTER_NAME    = EARTH
REF_FRAME      = TEME
TIME_SYSTEM    = UTC
MEAN_ELEMENT_THEORY = SGP/SGP4

EPOCH          = 2025-11-14T18:29:19.237920
MEAN_MOTION    = 15.74285818
ECCENTRICITY   = .0001294
INCLINATION    = 53.1595
RA_OF_ASC_NODE = 48.0410
ARG_OF_PERICENTER = 81.8902
MEAN_ANOMALY   = 278.2264

EPHEMERIS_TYPE = 0
CLASSIFICATION_TYPE = U
NORAD_CAT_ID   = 66207
ELEMENT_SET_NO = 999
REV_AT_EPOCH   = 400
BSTAR          = .12699E-2
MEAN_MOTION_DOT = .190404E-2
MEAN_MOTION_DDOT = 0

CCSDS_OMM_VERS = 2.0
CREATION_DATE  = 
ORIGINATOR     = 

OBJECT_NAME    = STARLINK-35751
OBJECT_ID      = 2025-244C
CENTER_NAME    = EARTH
REF_FRAME      = TEME
TIME_SYSTEM    = UTC
MEAN_ELEMENT_THEORY = SGP/SGP4

EPOCH          = 2025-11-14T20:00:01.000224
MEAN_MOTION    = 15.56848409
ECCENTRICITY   = .0001128
INCLINATION    = 53.1596
RA_OF_ASC_NODE = 47.9804
ARG_OF_PERICENTER = 71.2913
MEAN_ANOMALY   = 162.6565

EPHEMERIS_TYPE = 0
CLASSIFICATION_TYPE = U
NORAD_CAT_ID   = 66208
ELEMENT_SET_NO = 999
REV_AT_EPOCH   = 388
BSTAR          = -.32059E-1
MEAN_MOTION_DOT = -.2087359E-1
MEAN_MOTION_DDOT = 0

CCSDS_OMM_VERS = 2.0
CREATION_DATE  = 
ORIGINATOR     = 

OBJECT_NAME    = STARLINK-35750
OBJECT_ID      = 2025-244D
CENTER_NAME    = EARTH
REF_FRAME      = TEME
TIME_SYSTEM    = UTC
MEAN_ELEMENT_THEORY = SGP/SGP4

EPOCH          = 2025-11-14T20:00:01.000224
MEAN_MOTION    = 15.56852395
ECCENTRICITY   = .0001076
INCLINATION    = 53.1597
RA_OF_ASC_NODE = 47.9714
ARG_OF_PERICENTER = 73.2589
MEAN_ANOMALY   = 164.5211

EPHEMERIS_TYPE = 0
CLASSIFICATION_TYPE = U
NORAD_CAT_ID   = 66209
ELEMENT_SET_NO = 999
REV_AT_EPOCH   = 385
BSTAR          = -.32184E-1
MEAN_MOTION_DOT = -.2094828E-1
MEAN_MOTION_DDOT = 0

CCSDS_OMM_VERS = 2.0
CREATION_DATE  = 
ORIGINATOR     = 

OBJECT_NAME    = STARLINK-35740
OBJECT_ID      = 2025-244E
CENTER_NAME    = EARTH
REF_FRAME      = TEME
TIME_SYSTEM    = UTC
MEAN_ELEMENT_THEORY = SGP/SGP4

EPOCH          = 2025-11-14T20:00:01.000224
MEAN_MOTION    = 15.56852869
ECCENTRICITY   = .0001079
INCLINATION    = 53.1598
RA_OF_ASC_NODE = 47.9758
ARG_OF_PERICENTER = 71.8024
MEAN_ANOMALY   = 164.0602

EPHEMERIS_TYPE = 0
CLASSIFICATION_TYPE = U
NORAD_CAT_ID   = 66210
ELEMENT_SET_NO = 999
REV_AT_EPOCH   = 372
BSTAR          = -.32193E-1
MEAN_MOTION_DOT = -.2095435E-1
MEAN_MOTION_DDOT = 0

CCSDS_OMM_VERS = 2.0
CREATION_DATE  = 
ORIGINATOR     = 

OBJECT_NAME    = STARLINK-35723
OBJECT_ID      = 2025-244F
CENTER_NAME    = EARTH
REF_FRAME      = TEME
TIME_SYSTEM    = UTC
MEAN_ELEMENT_THEORY = SGP/SGP4

EPOCH          = 2025-11-14T20:00:01.000224
MEAN_MOTION    = 15.56852230
ECCENTRICITY   = .0001081
INCLINATION    = 53.1599
RA_OF_ASC_NODE = 47.9673
ARG_OF_PERICENTER = 74.5773
MEAN_ANOMALY   = 165.1198

EPHEMERIS_TYPE = 0
CLASSIFICATION_TYPE = U
NORAD_CAT_ID   = 66211
ELEMENT_SET_NO = 999
REV_AT_EPOCH   = 377
BSTAR          = -.32181E-1
MEAN_MOTION_DOT = -.209466E-1
MEAN_MOTION_DDOT = 0

CCSDS_OMM_VERS = 2.0
CREATION_DATE  = 
ORIGINATOR     = 

OBJECT_NAME    = STARLINK-35710
OBJECT_ID      = 2025-244G
CENTER_NAME    = EARTH
REF_FRAME      = TEME
TIME_SYSTEM    = UTC
MEAN_ELEMENT_THEORY = SGP/SGP4

EPOCH          = 2025-11-14T20:00:01.000224
MEAN_MOTION    = 15.56852608
ECCENTRICITY   = .0001189
INCLINATION    = 53.1597
RA_OF_ASC_NODE = 47.9591
ARG_OF_PERICENTER = 77.3490
MEAN_ANOMALY   = 166.1828

EPHEMERIS_TYPE = 0
CLASSIFICATION_TYPE = U
NORAD_CAT_ID   = 66212
ELEMENT_SET_NO = 999
REV_AT_EPOCH   = 385
BSTAR          = -.32219E-1
MEAN_MOTION_DOT = -.2096939E-1
MEAN_MOTION_DDOT = 0

CCSDS_OMM_VERS = 2.0
CREATION_DATE  = 
ORIGINATOR     = 

OBJECT_NAME    = STARLINK-34204
OBJECT_ID      = 2025-244H
CENTER_NAME    = EARTH
REF_FRAME      = TEME
TIME_SYSTEM    = UTC
MEAN_ELEMENT_THEORY = SGP/SGP4

EPOCH          = 2025-11-14T20:00:01.000224
MEAN_MOTION    = 15.56851716
ECCENTRICITY   = .0001058
INCLINATION    = 53.1598
RA_OF_ASC_NODE = 47.9636
ARG_OF_PERICENTER = 76.8890
MEAN_ANOMALY   = 164.7259

EPHEMERIS_TYPE = 0
CLASSIFICATION_TYPE = U
NORAD_CAT_ID   = 66213
ELEMENT_SET_NO = 999
REV_AT_EPOCH   = 404
BSTAR          = -.3218E-1
MEAN_MOTION_DOT = -.2094573E-1
MEAN_MOTION_DDOT = 0

