STARLINK-35543          
1 66201U 25243AA  25318.77913569 -.00717011  00000+0 -56164-2 0  9999
2 66201  53.1588  60.9113 0000787  51.0666 309.0424 15.72946684  3033
STARLINK-35534          
1 66202U 25243AB  25318.77947646 -.00802820  00000+0 -63691-2 0  9999
2 66202  53.1585  60.9134 0000995  48.0710 312.0394 15.72890459  3039
STARLINK-35548          
1 66203U 25243AC  25318.77978169 -.00294579  00000+0 -21620-2 0  9996
2 66203  53.1586  60.9160 0001281  45.8543 314.2582 15.73270989  3032
STARLINK-35490          
1 66204U 25243AD  25318.78048726 -.00728165  00000+0 -57108-2 0  9998
2 66204  53.1584  60.9209 0000326  87.2506 272.8550 15.72952447  3032
STARLINK-35748          
1 66206U 25244A   25318.83334491 -.02093495  00000+0 -32162-1 0  9999
2 66206  53.1597  47.9883 0001123  72.6129 157.5006 15.56851112  3771
STARLINK-35747          
1 66207U 25244B   25318.77036155  .00190404  00000+0  12699-2 0  9997
2 66207  53.1595  48.0410 0001294  81.8902 278.2264 15.74285818  4006
STARLINK-35751          
1 66208U 25244C   25318.83334491 -.02087359  00000+0 -32059-1 0  9998
2 66208  53.1596  47.9804 0001128  71.2913 162.6565 15.56848409  3880
STARLINK-35750          
1 66209U 25244D   25318.83334491 -.02094828  00000+0 -32184-1 0  9997
2 66209  53.1597  47.9714 0001076  73.2589 164.5211 15.56852395  3850
STARLINK-35740          
1 66210U 25244E   25318.83334491 -.02095435  00000+0 -32193-1 0  9994
2 66210  53.1598  47.9758 0001079  71.8024 164.0602 15.56852869  3723
STARLINK-35723          
1 66211U 25244F   25318.83334491 -.02094660  00000+0 -32181-1 0  9991
2 66211  53.1599  47.9673 0001081  74.5773 165.1198 15.56852230  3774
STARLINK-35710          
1 66212U 25244G   25318.83334491 -.02096939  00000+0 -32219-1 0  9995
2 66212  53.1597  47.9591 0001189  77.3490 166.1828 15.56852608  3857
STARLINK-34204          
1 66213U 25244H   25318.83334491 -.02094573  00000+0 -32180-1 0  9995
2 66213  53.1598  47.9636 0001058  76.8890 164.7259 15.56851716  4045
